[
  {
    "OBJECT_NAME": "STARLINK-6231",
    "OBJECT_ID": "23078N",
    "EPOCH": "2025-11-11T06:13:12.067680",
    "MEAN_MOTION": 14.98337844,
    "ECCENTRICITY": 0.0002797,
    "INCLINATION": 69.999,
    "RA_OF_ASC_NODE": 263.0626,
    "ARG_OF_PERICENTER": 270.4132,
    "MEAN_ANOMALY": 89.6707,
    "EPHEMERIS_TYPE": 0,
    "CLASSIFICATION_TYPE": "U",
    "NORAD_CAT_ID": 56779,
    "ELEMENT_SET_NO": 999,
    "REV_AT_EPOCH": 13542,
    "BSTAR": 0.00013063,
    "MEAN_MOTION_DOT": 1.466e-05,
    "MEAN_MOTION_DDOT": 0.0,
    "TLE_LINE1": "1 56779U 23078N   25315.25916745  .00001466  00000+0  13063-3 0  9991",
    "TLE_LINE2": "2 56779  69.9990 263.0626 0002797 270.4132  89.6707 14.98337844135420",
    "COMMENT": "Grouped by shell and plane from TLE"
  },
  {
    "OBJECT_NAME": "STARLINK-6352",
    "OBJECT_ID": "23078R",
    "EPOCH": "2025-11-11T06:43:15.303936",
    "MEAN_MOTION": 14.98331907,
    "ECCENTRICITY": 0.0003141,
    "INCLINATION": 69.9988,
    "RA_OF_ASC_NODE": 263.1358,
    "ARG_OF_PERICENTER": 272.6532,
    "MEAN_ANOMALY": 87.4267,
    "EPHEMERIS_TYPE": 0,
    "CLASSIFICATION_TYPE": "U",
    "NORAD_CAT_ID": 56782,
    "ELEMENT_SET_NO": 999,
    "REV_AT_EPOCH": 13543,
    "BSTAR": 0.00014782,
    "MEAN_MOTION_DOT": 1.671e-05,
    "MEAN_MOTION_DDOT": 0.0,
    "TLE_LINE1": "1 56782U 23078R   25315.28003824  .00001671  00000+0  14782-3 0  9990",
    "TLE_LINE2": "2 56782  69.9988 263.1358 0003141 272.6532  87.4267 14.98331907135438",
    "COMMENT": "Grouped by shell and plane from TLE"
  },
  {
    "OBJECT_NAME": "STARLINK-6357",
    "OBJECT_ID": "23078S",
    "EPOCH": "2025-11-11T06:31:14.354688",
    "MEAN_MOTION": 14.98330563,
    "ECCENTRICITY": 0.0003121,
    "INCLINATION": 69.9989,
    "RA_OF_ASC_NODE": 263.1074,
    "ARG_OF_PERICENTER": 277.916,
    "MEAN_ANOMALY": 82.1644,
    "EPHEMERIS_TYPE": 0,
    "CLASSIFICATION_TYPE": "U",
    "NORAD_CAT_ID": 56783,
    "ELEMENT_SET_NO": 999,
    "REV_AT_EPOCH": 13543,
    "BSTAR": 0.00011309,
    "MEAN_MOTION_DOT": 1.257e-05,
    "MEAN_MOTION_DDOT": 0.0,
    "TLE_LINE1": "1 56783U 23078S   25315.27169392  .00001257  00000+0  11309-3 0  9995",
    "TLE_LINE2": "2 56783  69.9989 263.1074 0003121 277.9160  82.1644 14.98330563135436",
    "COMMENT": "Grouped by shell and plane from TLE"
  },
  {
    "OBJECT_NAME": "STARLINK-6354",
    "OBJECT_ID": "23078T",
    "EPOCH": "2025-11-11T06:37:14.952000",
    "MEAN_MOTION": 14.98335112,
    "ECCENTRICITY": 0.0002712,
    "INCLINATION": 69.9993,
    "RA_OF_ASC_NODE": 263.123,
    "ARG_OF_PERICENTER": 268.99,
    "MEAN_ANOMALY": 91.0948,
    "EPHEMERIS_TYPE": 0,
    "CLASSIFICATION_TYPE": "U",
    "NORAD_CAT_ID": 56784,
    "ELEMENT_SET_NO": 999,
    "REV_AT_EPOCH": 13543,
    "BSTAR": 8.4382e-05,
    "MEAN_MOTION_DOT": 9.14e-06,
    "MEAN_MOTION_DDOT": 0.0,
    "TLE_LINE1": "1 56784U 23078T   25315.27586750  .00000914  00000+0  84382-4 0  9998",
    "TLE_LINE2": "2 56784  69.9993 263.1230 0002712 268.9900  91.0948 14.98335112135434",
    "COMMENT": "Grouped by shell and plane from TLE"
  },
  {
    "OBJECT_NAME": "STARLINK-6341",
    "OBJECT_ID": "23078V",
    "EPOCH": "2025-11-11T06:25:14.264544",
    "MEAN_MOTION": 14.98316614,
    "ECCENTRICITY": 0.0002856,
    "INCLINATION": 69.9992,
    "RA_OF_ASC_NODE": 263.0931,
    "ARG_OF_PERICENTER": 274.1114,
    "MEAN_ANOMALY": 85.9719,
    "EPHEMERIS_TYPE": 0,
    "CLASSIFICATION_TYPE": "U",
    "NORAD_CAT_ID": 56786,
    "ELEMENT_SET_NO": 999,
    "REV_AT_EPOCH": 13543,
    "BSTAR": 0.00022646,
    "MEAN_MOTION_DOT": 2.609e-05,
    "MEAN_MOTION_DDOT": 0.0,
    "TLE_LINE1": "1 56786U 23078V   25315.26752621  .00002609  00000+0  22646-3 0  9998",
    "TLE_LINE2": "2 56786  69.9992 263.0931 0002856 274.1114  85.9719 14.98316614135431",
    "COMMENT": "Grouped by shell and plane from TLE"
  },
  {
    "OBJECT_NAME": "STARLINK-6326",
    "OBJECT_ID": "23078W",
    "EPOCH": "2025-11-11T05:49:10.015392",
    "MEAN_MOTION": 14.98332351,
    "ECCENTRICITY": 0.0002768,
    "INCLINATION": 69.9999,
    "RA_OF_ASC_NODE": 263.0068,
    "ARG_OF_PERICENTER": 269.0347,
    "MEAN_ANOMALY": 91.0495,
    "EPHEMERIS_TYPE": 0,
    "CLASSIFICATION_TYPE": "U",
    "NORAD_CAT_ID": 56787,
    "ELEMENT_SET_NO": 999,
    "REV_AT_EPOCH": 13543,
    "BSTAR": 3.6342000000000005e-05,
    "MEAN_MOTION_DOT": 3.41e-06,
    "MEAN_MOTION_DDOT": 0.0,
    "TLE_LINE1": "1 56787U 23078W   25315.24247703  .00000341  00000+0  36342-4 0  9997",
    "TLE_LINE2": "2 56787  69.9999 263.0068 0002768 269.0347  91.0495 14.98332351135438",
    "COMMENT": "Grouped by shell and plane from TLE"
  },
  {
    "OBJECT_NAME": "STARLINK-6336",
    "OBJECT_ID": "23078X",
    "EPOCH": "2025-11-11T06:19:13.121184",
    "MEAN_MOTION": 14.98329744,
    "ECCENTRICITY": 0.0002786,
    "INCLINATION": 69.9992,
    "RA_OF_ASC_NODE": 263.0777,
    "ARG_OF_PERICENTER": 272.6618,
    "MEAN_ANOMALY": 87.4222,
    "EPHEMERIS_TYPE": 0,
    "CLASSIFICATION_TYPE": "U",
    "NORAD_CAT_ID": 56788,
    "ELEMENT_SET_NO": 999,
    "REV_AT_EPOCH": 13543,
    "BSTAR": 0.00015672,
    "MEAN_MOTION_DOT": 1.777e-05,
    "MEAN_MOTION_DDOT": 0.0,
    "TLE_LINE1": "1 56788U 23078X   25315.26334631  .00001777  00000+0  15672-3 0  9993",
    "TLE_LINE2": "2 56788  69.9992 263.0777 0002786 272.6618  87.4222 14.98329744135439",
    "COMMENT": "Grouped by shell and plane from TLE"
  },
  {
    "OBJECT_NAME": "STARLINK-6060",
    "OBJECT_ID": "23078AD",
    "EPOCH": "2025-11-11T06:07:11.590464",
    "MEAN_MOTION": 14.98333006,
    "ECCENTRICITY": 0.0002873,
    "INCLINATION": 69.9989,
    "RA_OF_ASC_NODE": 263.0477,
    "ARG_OF_PERICENTER": 268.887,
    "MEAN_ANOMALY": 91.196,
    "EPHEMERIS_TYPE": 0,
    "CLASSIFICATION_TYPE": "U",
    "NORAD_CAT_ID": 56794,
    "ELEMENT_SET_NO": 999,
    "REV_AT_EPOCH": 13543,
    "BSTAR": 8.7581e-05,
    "MEAN_MOTION_DOT": 9.52e-06,
    "MEAN_MOTION_DDOT": 0.0,
    "TLE_LINE1": "1 56794U 23078AD  25315.25499526  .00000952  00000+0  87581-4 0  9997",
    "TLE_LINE2": "2 56794  69.9989 263.0477 0002873 268.8870  91.1960 14.98333006135430",
    "COMMENT": "Grouped by shell and plane from TLE"
  },
  {
    "OBJECT_NAME": "STARLINK-6061",
    "OBJECT_ID": "23078AE",
    "EPOCH": "2025-11-11T05:31:22.945152",
    "MEAN_MOTION": 14.98339503,
    "ECCENTRICITY": 0.000202,
    "INCLINATION": 70.0017,
    "RA_OF_ASC_NODE": 262.9599,
    "ARG_OF_PERICENTER": 270.0157,
    "MEAN_ANOMALY": 90.077,
    "EPHEMERIS_TYPE": 0,
    "CLASSIFICATION_TYPE": "U",
    "NORAD_CAT_ID": 56795,
    "ELEMENT_SET_NO": 999,
    "REV_AT_EPOCH": 13543,
    "BSTAR": 0.00013586999999999998,
    "MEAN_MOTION_DOT": 1.529e-05,
    "MEAN_MOTION_DDOT": 0.0,
    "TLE_LINE1": "1 56795U 23078AE  25315.23012668  .00001529  00000+0  13587-3 0  9999",
    "TLE_LINE2": "2 56795  70.0017 262.9599 0002020 270.0157  90.0770 14.98339503135431",
    "COMMENT": "Grouped by shell and plane from TLE"
  },
  {
    "OBJECT_NAME": "STARLINK-6087",
    "OBJECT_ID": "23078AL",
    "EPOCH": "2025-11-11T05:43:08.820192",
    "MEAN_MOTION": 14.98343453,
    "ECCENTRICITY": 0.0003027,
    "INCLINATION": 69.9995,
    "RA_OF_ASC_NODE": 262.9882,
    "ARG_OF_PERICENTER": 269.5822,
    "MEAN_ANOMALY": 90.499,
    "EPHEMERIS_TYPE": 0,
    "CLASSIFICATION_TYPE": "U",
    "NORAD_CAT_ID": 56801,
    "ELEMENT_SET_NO": 999,
    "REV_AT_EPOCH": 13543,
    "BSTAR": 0.0,
    "MEAN_MOTION_DOT": -5.58e-06,
    "MEAN_MOTION_DDOT": 0.0,
    "TLE_LINE1": "1 56801U 23078AL  25315.23829653 -.00000558  00000+0 -38964-4 0  9997",
    "TLE_LINE2": "2 56801  69.9995 262.9882 0003027 269.5822  90.4990 14.98343453135433",
    "COMMENT": "Grouped by shell and plane from TLE"
  },
  {
    "OBJECT_NAME": "STARLINK-6070",
    "OBJECT_ID": "23078AM",
    "EPOCH": "2025-11-11T06:07:26.003712",
    "MEAN_MOTION": 14.98330503,
    "ECCENTRICITY": 0.0002789,
    "INCLINATION": 69.9992,
    "RA_OF_ASC_NODE": 263.0533,
    "ARG_OF_PERICENTER": 267.1059,
    "MEAN_ANOMALY": 92.9781,
    "EPHEMERIS_TYPE": 0,
    "CLASSIFICATION_TYPE": "U",
    "NORAD_CAT_ID": 56802,
    "ELEMENT_SET_NO": 999,
    "REV_AT_EPOCH": 13543,
    "BSTAR": 3.3158000000000003e-05,
    "MEAN_MOTION_DOT": 3.03e-06,
    "MEAN_MOTION_DDOT": 0.0,
    "TLE_LINE1": "1 56802U 23078AM  25315.25516208  .00000303  00000+0  33158-4 0  9995",
    "TLE_LINE2": "2 56802  69.9992 263.0533 0002789 267.1059  92.9781 14.98330503135433",
    "COMMENT": "Grouped by shell and plane from TLE"
  },
  {
    "OBJECT_NAME": "STARLINK-6069",
    "OBJECT_ID": "23078AP",
    "EPOCH": "2025-11-11T05:55:10.151328",
    "MEAN_MOTION": 14.98337756,
    "ECCENTRICITY": 0.0002711,
    "INCLINATION": 69.9995,
    "RA_OF_ASC_NODE": 263.0183,
    "ARG_OF_PERICENTER": 271.2986,
    "MEAN_ANOMALY": 88.7862,
    "EPHEMERIS_TYPE": 0,
    "CLASSIFICATION_TYPE": "U",
    "NORAD_CAT_ID": 56804,
    "ELEMENT_SET_NO": 999,
    "REV_AT_EPOCH": 13610,
    "BSTAR": 3.137e-05,
    "MEAN_MOTION_DOT": 2.81e-06,
    "MEAN_MOTION_DDOT": 0.0,
    "TLE_LINE1": "1 56804U 23078AP  25315.24664527  .00000281  00000+0  31370-4 0  9993",
    "TLE_LINE2": "2 56804  69.9995 263.0183 0002711 271.2986  88.7862 14.98337756136104",
    "COMMENT": "Grouped by shell and plane from TLE"
  },
  {
    "OBJECT_NAME": "STARLINK-6064",
    "OBJECT_ID": "23078AQ",
    "EPOCH": "2025-11-11T06:01:11.293824",
    "MEAN_MOTION": 14.98314266,
    "ECCENTRICITY": 0.000299,
    "INCLINATION": 69.9991,
    "RA_OF_ASC_NODE": 263.031,
    "ARG_OF_PERICENTER": 270.7233,
    "MEAN_ANOMALY": 89.3583,
    "EPHEMERIS_TYPE": 0,
    "CLASSIFICATION_TYPE": "U",
    "NORAD_CAT_ID": 56805,
    "ELEMENT_SET_NO": 999,
    "REV_AT_EPOCH": 13543,
    "BSTAR": 0.0,
    "MEAN_MOTION_DOT": -8.93e-06,
    "MEAN_MOTION_DDOT": 0.0,
    "TLE_LINE1": "1 56805U 23078AQ  25315.25082516 -.00000893  00000+0 -67108-4 0  9996",
    "TLE_LINE2": "2 56805  69.9991 263.0310 0002990 270.7233  89.3583 14.98314266135434",
    "COMMENT": "Grouped by shell and plane from TLE"
  }
]